[{"OBJECT_NAME":"FENGYUN 1C DEB","OBJECT_ID":"1999-025ASD","EPOCH":"2026-04-04T09:06:07.887744","MEAN_MOTION":14.63860127,"ECCENTRICITY":0.00115532,"INCLINATION":98.8911,"RA_OF_ASC_NODE":249.5023,"ARG_OF_PERICENTER":199.3663,"MEAN_ANOMALY":160.71,"EPHEMERIS_TYPE":0,"CLASSIFICATION_TYPE":"U","NORAD_CAT_ID":30719,"ELEMENT_SET_NO":999,"REV_AT_EPOCH":99094,"BSTAR":0.0059787072,"MEAN_MOTION_DOT":0.00031351,"MEAN_MOTION_DDOT":0},{"OBJECT_NAME":"FENGYUN 1C DEB","OBJECT_ID":"1999-025ASE","EPOCH":"2026-04-02T07:35:34.078560","MEAN_MOTION":14.29580812,"ECCENTRICITY":0.00315143,"INCLINATION":99.0452,"RA_OF_ASC_NODE":274.9174,"ARG_OF_PERICENTER":10.5662,"MEAN_ANOMALY":112.9167,"EPHEMERIS_TYPE":0,"CLASSIFICATION_TYPE":"U","NORAD_CAT_ID":30720,"ELEMENT_SET_NO":999,"REV_AT_EPOCH":99068,"BSTAR":0.00099605268,"MEAN_MOTION_DOT":2.515e-5,"MEAN_MOTION_DDOT":0},{"OBJECT_NAME":"FENGYUN 1C DEB","OBJECT_ID":"1999-025ASF","EPOCH":"2026-04-03T16:02:04.812864","MEAN_MOTION":14.78235809,"ECCENTRICITY":0.00227637,"INCLINATION":98.7137,"RA_OF_ASC_NODE":238.4349,"ARG_OF_PERICENTER":348.6452,"MEAN_ANOMALY":137.7347,"EPHEMERIS_TYPE":0,"CLASSIFICATION_TYPE":"U","NORAD_CAT_ID":30721,"ELEMENT_SET_NO":999,"REV_AT_EPOCH":99492,"BSTAR":0.0050399548,"MEAN_MOTION_DOT":0.00036854,"MEAN_MOTION_DDOT":0},{"OBJECT_NAME":"FENGYUN 1C DEB","OBJECT_ID":"1999-025ASH","EPOCH":"2026-04-03T05:29:00.941568","MEAN_MOTION":14.43148694,"ECCENTRICITY":0.00124594,"INCLINATION":98.8357,"RA_OF_ASC_NODE":188.24,"ARG_OF_PERICENTER":285.461,"MEAN_ANOMALY":103.9477,"EPHEMERIS_TYPE":0,"CLASSIFICATION_TYPE":"U","NORAD_CAT_ID":30723,"ELEMENT_SET_NO":999,"REV_AT_EPOCH":98978,"BSTAR":0.0035195011,"MEAN_MOTION_DOT":0.00011804,"MEAN_MOTION_DDOT":0},{"OBJECT_NAME":"FENGYUN 1C DEB","OBJECT_ID":"1999-025ASJ","EPOCH":"2026-04-03T00:50:21.592896","MEAN_MOTION":14.37351594,"ECCENTRICITY":0.00924075,"INCLINATION":99.3175,"RA_OF_ASC_NODE":291.9128,"ARG_OF_PERICENTER":296.4226,"MEAN_ANOMALY":217.8508,"EPHEMERIS_TYPE":0,"CLASSIFICATION_TYPE":"U","NORAD_CAT_ID":30724,"ELEMENT_SET_NO":999,"REV_AT_EPOCH":44,"BSTAR":0.00043531591,"MEAN_MOTION_DOT":1.312e-5,"MEAN_MOTION_DDOT":0},{"OBJECT_NAME":"FENGYUN 1C DEB","OBJECT_ID":"1999-025ASK","EPOCH":"2026-04-04T04:31:36.551136","MEAN_MOTION":14.16781148,"ECCENTRICITY":0.00881871,"INCLINATION":98.9954,"RA_OF_ASC_NODE":169.2721,"ARG_OF_PERICENTER":72.3264,"MEAN_ANOMALY":314.6183,"EPHEMERIS_TYPE":0,"CLASSIFICATION_TYPE":"U","NORAD_CAT_ID":30725,"ELEMENT_SET_NO":999,"REV_AT_EPOCH":97940,"BSTAR":0.0021736249,"MEAN_MOTION_DOT":4.476e-5,"MEAN_MOTION_DDOT":0},{"OBJECT_NAME":"FENGYUN 1C DEB","OBJECT_ID":"1999-025ASL","EPOCH":"2026-04-01T23:05:18.634272","MEAN_MOTION":14.09787624,"ECCENTRICITY":0.0076755,"INCLINATION":99.2688,"RA_OF_ASC_NODE":101.9238,"ARG_OF_PERICENTER":279.564,"MEAN_ANOMALY":112.0654,"EPHEMERIS_TYPE":0,"CLASSIFICATION_TYPE":"U","NORAD_CAT_ID":30726,"ELEMENT_SET_NO":999,"REV_AT_EPOCH":97536,"BSTAR":0.0010778,"MEAN_MOTION_DOT":1.899e-5,"MEAN_MOTION_DDOT":0},{"OBJECT_NAME":"FENGYUN 1C DEB","OBJECT_ID":"1999-025ASN","EPOCH":"2026-04-04T11:32:12.963840","MEAN_MOTION":14.23523894,"ECCENTRICITY":0.00994616,"INCLINATION":98.5304,"RA_OF_ASC_NODE":102.7582,"ARG_OF_PERICENTER":113.1819,"MEAN_ANOMALY":247.9875,"EPHEMERIS_TYPE":0,"CLASSIFICATION_TYPE":"U","NORAD_CAT_ID":30728,"ELEMENT_SET_NO":999,"REV_AT_EPOCH":99293,"BSTAR":9.78263e-5,"MEAN_MOTION_DOT":1.93e-6,"MEAN_MOTION_DDOT":0},{"OBJECT_NAME":"FENGYUN 1C DEB","OBJECT_ID":"1999-025ASQ","EPOCH":"2026-04-04T14:50:11.914944","MEAN_MOTION":14.26045145,"ECCENTRICITY":0.0079106,"INCLINATION":98.6041,"RA_OF_ASC_NODE":136.7914,"ARG_OF_PERICENTER":80.6853,"MEAN_ANOMALY":43.7032,"EPHEMERIS_TYPE":0,"CLASSIFICATION_TYPE":"U","NORAD_CAT_ID":30730,"ELEMENT_SET_NO":999,"REV_AT_EPOCH":98614,"BSTAR":0.0014463,"MEAN_MOTION_DOT":3.528e-5,"MEAN_MOTION_DDOT":0},{"OBJECT_NAME":"FENGYUN 1C DEB","OBJECT_ID":"1999-025ASR","EPOCH":"2026-04-04T05:06:10.266912","MEAN_MOTION":14.43582815,"ECCENTRICITY":0.00119332,"INCLINATION":98.8502,"RA_OF_ASC_NODE":182.9306,"ARG_OF_PERICENTER":267.0621,"MEAN_ANOMALY":121.2661,"EPHEMERIS_TYPE":0,"CLASSIFICATION_TYPE":"U","NORAD_CAT_ID":30731,"ELEMENT_SET_NO":999,"REV_AT_EPOCH":98978,"BSTAR":0.0033569999,"MEAN_MOTION_DOT":0.00011356,"MEAN_MOTION_DDOT":0},{"OBJECT_NAME":"FENGYUN 1C DEB","OBJECT_ID":"1999-025ASS","EPOCH":"2026-04-04T00:20:42.245376","MEAN_MOTION":14.04044947,"ECCENTRICITY":0.01226254,"INCLINATION":98.7953,"RA_OF_ASC_NODE":115.6168,"ARG_OF_PERICENTER":254.8785,"MEAN_ANOMALY":133.4531,"EPHEMERIS_TYPE":0,"CLASSIFICATION_TYPE":"U","NORAD_CAT_ID":30732,"ELEMENT_SET_NO":999,"REV_AT_EPOCH":97767,"BSTAR":0.00030095063,"MEAN_MOTION_DOT":4.65e-6,"MEAN_MOTION_DDOT":0},{"OBJECT_NAME":"FENGYUN 1C DEB","OBJECT_ID":"1999-025ASV","EPOCH":"2026-04-02T03:37:10.518816","MEAN_MOTION":14.24743106,"ECCENTRICITY":0.00571837,"INCLINATION":98.7522,"RA_OF_ASC_NODE":167.8812,"ARG_OF_PERICENTER":284.4219,"MEAN_ANOMALY":104.8719,"EPHEMERIS_TYPE":0,"CLASSIFICATION_TYPE":"U","NORAD_CAT_ID":30735,"ELEMENT_SET_NO":999,"REV_AT_EPOCH":98320,"BSTAR":0.0012417064,"MEAN_MOTION_DOT":2.897e-5,"MEAN_MOTION_DDOT":0},{"OBJECT_NAME":"FENGYUN 1C DEB","OBJECT_ID":"1999-025ASW","EPOCH":"2026-04-02T20:41:33.272160","MEAN_MOTION":13.62032638,"ECCENTRICITY":0.02821923,"INCLINATION":98.7679,"RA_OF_ASC_NODE":124.8141,"ARG_OF_PERICENTER":123.9424,"MEAN_ANOMALY":49.4646,"EPHEMERIS_TYPE":0,"CLASSIFICATION_TYPE":"U","NORAD_CAT_ID":30736,"ELEMENT_SET_NO":999,"REV_AT_EPOCH":94365,"BSTAR":0.0022326759,"MEAN_MOTION_DOT":2.211e-5,"MEAN_MOTION_DDOT":0},{"OBJECT_NAME":"FENGYUN 1C DEB","OBJECT_ID":"1999-025ASX","EPOCH":"2026-04-03T17:22:26.998176","MEAN_MOTION":14.1843583,"ECCENTRICITY":0.00234838,"INCLINATION":98.5944,"RA_OF_ASC_NODE":77.4252,"ARG_OF_PERICENTER":167.4329,"MEAN_ANOMALY":13.9667,"EPHEMERIS_TYPE":0,"CLASSIFICATION_TYPE":"U","NORAD_CAT_ID":30737,"ELEMENT_SET_NO":999,"REV_AT_EPOCH":98620,"BSTAR":0.00041828059,"MEAN_MOTION_DOT":8.24e-6,"MEAN_MOTION_DDOT":0},{"OBJECT_NAME":"FENGYUN 1C DEB","OBJECT_ID":"1999-025ASZ","EPOCH":"2026-04-04T10:49:56.418816","MEAN_MOTION":14.15136902,"ECCENTRICITY":0.01008705,"INCLINATION":98.7052,"RA_OF_ASC_NODE":83.7836,"ARG_OF_PERICENTER":355.1523,"MEAN_ANOMALY":156.3691,"EPHEMERIS_TYPE":0,"CLASSIFICATION_TYPE":"U","NORAD_CAT_ID":30739,"ELEMENT_SET_NO":999,"REV_AT_EPOCH":98457,"BSTAR":0.00059395512,"MEAN_MOTION_DOT":1.167e-5,"MEAN_MOTION_DDOT":0},{"OBJECT_NAME":"FENGYUN 1C DEB","OBJECT_ID":"1999-025ATA","EPOCH":"2026-04-03T06:02:22.293024","MEAN_MOTION":14.54509383,"ECCENTRICITY":0.0032491,"INCLINATION":98.6878,"RA_OF_ASC_NODE":207.3952,"ARG_OF_PERICENTER":154.7457,"MEAN_ANOMALY":205.5335,"EPHEMERIS_TYPE":0,"CLASSIFICATION_TYPE":"U","NORAD_CAT_ID":30740,"ELEMENT_SET_NO":999,"REV_AT_EPOCH":99267,"BSTAR":0.0046492,"MEAN_MOTION_DOT":0.00019958,"MEAN_MOTION_DDOT":0}]
