FENGYUN 1C DEB          
1 30719U 99025ASD 26094.37925796  .00031351  00000+0  59787-2 0  9994
2 30719  98.8911 249.5023 0011553 199.3663 160.7100 14.63860127990949
FENGYUN 1C DEB          
1 30720U 99025ASE 26092.31636665  .00002515  00000+0  99605-3 0  9996
2 30720  99.0452 274.9174 0031514  10.5662 112.9167 14.29580812990680
FENGYUN 1C DEB          
1 30721U 99025ASF 26093.66811126  .00036854  00000+0  50400-2 0  9995
2 30721  98.7137 238.4349 0022763 348.6452 137.7347 14.78235809994927
FENGYUN 1C DEB          
1 30723U 99025ASH 26093.22848312  .00011804  00000+0  35195-2 0  9998
2 30723  98.8357 188.2400 0012459 285.4610 103.9477 14.43148694989783
FENGYUN 1C DEB          
1 30724U 99025ASJ 26093.03497214  .00001312  00000+0  43532-3 0  9997
2 30724  99.3175 291.9128 0092407 296.4226 217.8508 14.37351594   448
FENGYUN 1C DEB          
1 30725U 99025ASK 26094.18861749  .00004476  00000+0  21736-2 0  9998
2 30725  98.9954 169.2721 0088187  72.3264 314.6183 14.16781148979403
FENGYUN 1C DEB          
1 30726U 99025ASL 26091.96202123  .00001899  00000+0  10778-2 0  9997
2 30726  99.2688 101.9238 0076755 279.5640 112.0654 14.09787624975366
FENGYUN 1C DEB          
1 30728U 99025ASN 26094.48070560  .00000193  00000+0  97826-4 0  9994
2 30728  98.5304 102.7582 0099461 113.1819 247.9875 14.23523894992934
FENGYUN 1C DEB          
1 30730U 99025ASQ 26094.61819346  .00003528  00000+0  14463-2 0  9994
2 30730  98.6041 136.7914 0079106  80.6853  43.7032 14.26045145986146
FENGYUN 1C DEB          
1 30731U 99025ASR 26094.21261883  .00011356  00000+0  33570-2 0  9996
2 30731  98.8502 182.9306 0011933 267.0621 121.2661 14.43582815989789
FENGYUN 1C DEB          
1 30732U 99025ASS 26094.01437784  .00000465  00000+0  30095-3 0  9999
2 30732  98.7953 115.6168 0122625 254.8785 133.4531 14.04044947977676
FENGYUN 1C DEB          
1 30735U 99025ASV 26092.15081619  .00002897  00000+0  12417-2 0  9995
2 30735  98.7522 167.8812 0057183 284.4219 104.8719 14.24743106983204
FENGYUN 1C DEB          
1 30736U 99025ASW 26092.86219065  .00002211  00000+0  22327-2 0  9993
2 30736  98.7679 124.8141 0282192 123.9424  49.4646 13.62032638943651
FENGYUN 1C DEB          
1 30737U 99025ASX 26093.72392359  .00000824  00000+0  41828-3 0  9994
2 30737  98.5944  77.4252 0023483 167.4329  13.9667 14.18435830986204
FENGYUN 1C DEB          
1 30739U 99025ASZ 26094.45134744  .00001167  00000+0  59396-3 0  9999
2 30739  98.7052  83.7836 0100870 355.1523 156.3691 14.15136902984576
FENGYUN 1C DEB          
1 30740U 99025ATA 26093.25164691  .00019958  00000+0  46492-2 0  9991
2 30740  98.6878 207.3952 0032491 154.7457 205.5335 14.54509383992670
